start=new Date('2023-06-16T00:00:00.000Z').valueOf();
sats=[{"TLE_LINE2":"2 45048  53.0542  89.6234 0001146  73.8966 286.2149 15.06391249185944","EPHEMERIS_TYPE":"0","RA_OF_ASC_NODE":"89.6234","MEAN_MOTION":"15.06391249","BSTAR":"0.00011668000000","OBJECT_TYPE":"PAYLOAD","SEMIMAJOR_AXIS":"6925.375","APOAPSIS":"548.034","CENTER_NAME":"EARTH","SITE":"AFETR","CLASSIFICATION_TYPE":"U","ECCENTRICITY":"0.00011460","OBJECT_NAME":"STARLINK-1134","OBJECT_ID":"2020-006E","GP_ID":"233985326","PERIOD":"95.593","MEAN_MOTION_DOT":"0.00001457","INCLINATION":"53.0542","REF_FRAME":"TEME","TIME_SYSTEM":"UTC","TLE_LINE1":"1 45048U 20006E   23166.06421937  .00001457  00000-0  11668-3 0  9991","PERIAPSIS":"546.447","REV_AT_EPOCH":"18594","ELEMENT_SET_NO":"999","ARG_OF_PERICENTER":"73.8966","MEAN_ANOMALY":"286.2149","MEAN_ELEMENT_THEORY":"SGP4","DECAY_DATE":null,"LAUNCH_DATE":"2020-01-29","EPOCH":"2023-06-15T01:32:28.553568","FILE":"3933820","NORAD_CAT_ID":"45048","RCS_SIZE":"LARGE","MEAN_MOTION_DDOT":"0.0000000000000","COUNTRY_CODE":"US"},{"MEAN_MOTION_DOT":"0.00007900","INCLINATION":"53.0810","PERIOD":"94.558","GP_ID":"234017545","OBJECT_ID":"2020-006F","OBJECT_NAME":"STARLINK-1135","ECCENTRICITY":"0.00022730","CLASSIFICATION_TYPE":"U","SITE":"AFETR","APOAPSIS":"498.741","CENTER_NAME":"EARTH","SEMIMAJOR_AXIS":"6875.313","BSTAR":"0.00034654000000","OBJECT_TYPE":"PAYLOAD","MEAN_MOTION":"15.22874314","RA_OF_ASC_NODE":"61.6469","TLE_LINE2":"2 45049  53.0810  61.6469 0002273 312.4865  47.5939 15.22874314186409","EPHEMERIS_TYPE":"0","COUNTRY_CODE":"US","RCS_SIZE":"LARGE","MEAN_MOTION_DDOT":"0.0000000000000","NORAD_CAT_ID":"45049","EPOCH":"2023-06-15T17:23:46.379040","FILE":"3934071","DECAY_DATE":null,"LAUNCH_DATE":"2020-01-29","MEAN_ELEMENT_THEORY":"SGP4","MEAN_ANOMALY":"47.5939","ARG_OF_PERICENTER":"312.4865","ELEMENT_SET_NO":"999","REV_AT_EPOCH":"18640","PERIAPSIS":"495.615","TLE_LINE1":"1 45049U 20006F   23166.72484235  .00007900  00000-0  34654-3 0  9994","TIME_SYSTEM":"UTC","REF_FRAME":"TEME"},{"PERIOD":"95.593","MEAN_MOTION_DOT":"0.00003229","INCLINATION":"53.0533","OBJECT_ID":"2020-006G","GP_ID":"233983824","CLASSIFICATION_TYPE":"U","ECCENTRICITY":"0.00011510","OBJECT_NAME":"STARLINK-1140","CENTER_NAME":"EARTH","APOAPSIS":"548.036","SITE":"AFETR","OBJECT_TYPE":"PAYLOAD","BSTAR":"0.00023558000000","SEMIMAJOR_AXIS":"6925.374","EPHEMERIS_TYPE":"0","TLE_LINE2":"2 45050  53.0533  89.5696 0001151  79.2551 280.8568 15.06391810185943","RA_OF_ASC_NODE":"89.5696","MEAN_MOTION":"15.06391810","COUNTRY_CODE":"US","NORAD_CAT_ID":"45050","RCS_SIZE":"LARGE","MEAN_MOTION_DDOT":"0.0000000000000","LAUNCH_DATE":"2020-01-29","DECAY_DATE":null,"FILE":"3933820","EPOCH":"2023-06-15T01:48:24.440832","MEAN_ANOMALY":"280.8568","MEAN_ELEMENT_THEORY":"SGP4","ELEMENT_SET_NO":"999","ARG_OF_PERICENTER":"79.2551","PERIAPSIS":"546.442","REV_AT_EPOCH":"18594","TIME_SYSTEM":"UTC","TLE_LINE1":"1 45050U 20006G   23166.07528288  .00003229  00000-0  23558-3 0  9992","REF_FRAME":"TEME"},{"REF_FRAME":"TEME","TIME_SYSTEM":"UTC","TLE_LINE1":"1 45052U 20006J   23166.81245818  .00015566  00000-0  10613-2 0  9995","REV_AT_EPOCH":"18605","PERIAPSIS":"546.387","ARG_OF_PERICENTER":"109.3916","ELEMENT_SET_NO":"999","MEAN_ANOMALY":"250.7197","MEAN_ELEMENT_THEORY":"SGP4","LAUNCH_DATE":"2020-01-29","DECAY_DATE":null,"FILE":"3934071","EPOCH":"2023-06-15T19:29:56.386752","NORAD_CAT_ID":"45052","RCS_SIZE":"LARGE","MEAN_MOTION_DDOT":"0.0000000000000","COUNTRY_CODE":"US","TLE_LINE2":"2 45052  53.0541  86.2632 0001150 109.3916 250.7197 15.06409775186054","EPHEMERIS_TYPE":"0","MEAN_MOTION":"15.06409775","RA_OF_ASC_NODE":"86.2632","BSTAR":"0.00106130000000","OBJECT_TYPE":"PAYLOAD","SEMIMAJOR_AXIS":"6925.319","CENTER_NAME":"EARTH","APOAPSIS":"547.980","SITE":"AFETR","CLASSIFICATION_TYPE":"U","ECCENTRICITY":"0.00011500","OBJECT_NAME":"STARLINK-1148","OBJECT_ID":"2020-006J","GP_ID":"234017046","PERIOD":"95.592","MEAN_MOTION_DOT":"0.00015566","INCLINATION":"53.0541"},{"REF_FRAME":"TEME","TLE_LINE1":"1 45053U 20006K   23166.65518682  .00068169  00000-0  20705-2 0  9990","TIME_SYSTEM":"UTC","PERIAPSIS":"463.085","REV_AT_EPOCH":"18667","ELEMENT_SET_NO":"999","ARG_OF_PERICENTER":"314.7664","MEAN_ANOMALY":"45.3049","MEAN_ELEMENT_THEORY":"SGP4","FILE":"3934071","EPOCH":"2023-06-15T15:43:28.141248","DECAY_DATE":null,"LAUNCH_DATE":"2020-01-29","RCS_SIZE":"LARGE","MEAN_MOTION_DDOT":"0.0000000000000","NORAD_CAT_ID":"45053","COUNTRY_CODE":"US","RA_OF_ASC_NODE":"37.2961","MEAN_MOTION":"15.33461512","TLE_LINE2":"2 45053  52.9900  37.2961 0003523 314.7664  45.3049 15.33461512186670","EPHEMERIS_TYPE":"0","SEMIMAJOR_AXIS":"6843.631","OBJECT_TYPE":"PAYLOAD","BSTAR":"0.00207050000000","SITE":"AFETR","CENTER_NAME":"EARTH","APOAPSIS":"467.907","ECCENTRICITY":"0.00035230","OBJECT_NAME":"STARLINK-1155","CLASSIFICATION_TYPE":"U","GP_ID":"234017296","OBJECT_ID":"2020-006K","INCLINATION":"52.9900","MEAN_MOTION_DOT":"0.00068169","PERIOD":"93.905"},{"CLASSIFICATION_TYPE":"U","OBJECT_NAME":"STARLINK-1156","ECCENTRICITY":"0.00012210","PERIOD":"95.592","MEAN_MOTION_DOT":"0.00018090","INCLINATION":"53.0542","OBJECT_ID":"2020-006L","GP_ID":"234018045","OBJECT_TYPE":"PAYLOAD","BSTAR":"0.00123010000000","SEMIMAJOR_AXIS":"6925.338","TLE_LINE2":"2 45054  53.0542  86.5736 0001221  96.5278 263.5850 15.06403566186041","EPHEMERIS_TYPE":"0","RA_OF_ASC_NODE":"86.5736","MEAN_MOTION":"15.06403566","CENTER_NAME":"EARTH","APOAPSIS":"548.048","SITE":"AFETR","DECAY_DATE":null,"LAUNCH_DATE":"2020-01-29","EPOCH":"2023-06-15T17:49:05.628000","FILE":"3934071","MEAN_ELEMENT_THEORY":"SGP4","MEAN_ANOMALY":"263.5850","COUNTRY_CODE":"US","NORAD_CAT_ID":"45054","RCS_SIZE":"LARGE","MEAN_MOTION_DDOT":"0.0000000000000","TIME_SYSTEM":"UTC","TLE_LINE1":"1 45054U 20006L   23166.74242625  .00018090  00000-0  12301-2 0  9993","REF_FRAME":"TEME","ELEMENT_SET_NO":"999","ARG_OF_PERICENTER":"96.5278","PERIAPSIS":"546.357","REV_AT_EPOCH":"18604"},{"MEAN_ANOMALY":"265.0286","MEAN_ELEMENT_THEORY":"SGP4","DECAY_DATE":null,"LAUNCH_DATE":"2020-01-29","EPOCH":"2023-06-15T05:26:00.881376","FILE":"3933820","NORAD_CAT_ID":"45057","RCS_SIZE":"LARGE","MEAN_MOTION_DDOT":"0.0000000000000","COUNTRY_CODE":"US","REF_FRAME":"TEME","TIME_SYSTEM":"UTC","TLE_LINE1":"1 45057U 20006P   23166.22639909  .00006221  00000-0  43625-3 0  9991","REV_AT_EPOCH":"18597","PERIAPSIS":"546.298","ARG_OF_PERICENTER":"95.0857","ELEMENT_SET_NO":"999","CLASSIFICATION_TYPE":"U","ECCENTRICITY":"0.00013500","OBJECT_NAME":"STARLINK-1159","OBJECT_ID":"2020-006P","GP_ID":"233984325","PERIOD":"95.593","INCLINATION":"53.0542","MEAN_MOTION_DOT":"0.00006221","EPHEMERIS_TYPE":"0","TLE_LINE2":"2 45057  53.0542  88.8953 0001350  95.0857 265.0286 15.06393695185972","MEAN_MOTION":"15.06393695","RA_OF_ASC_NODE":"88.8953","OBJECT_TYPE":"PAYLOAD","BSTAR":"0.00043625000000","SEMIMAJOR_AXIS":"6925.368","CENTER_NAME":"EARTH","APOAPSIS":"548.168","SITE":"AFETR"},{"TLE_LINE2":"2 45058  53.0545  89.2209 0001269 113.1036 247.0086 15.06391492185965","EPHEMERIS_TYPE":"0","RA_OF_ASC_NODE":"89.2209","MEAN_MOTION":"15.06391492","BSTAR":"0.00019157000000","OBJECT_TYPE":"PAYLOAD","SEMIMAJOR_AXIS":"6925.375","CENTER_NAME":"EARTH","APOAPSIS":"548.118","SITE":"AFETR","CLASSIFICATION_TYPE":"U","OBJECT_NAME":"STARLINK-1162","ECCENTRICITY":"0.00012690","OBJECT_ID":"2020-006Q","GP_ID":"233984075","PERIOD":"95.593","MEAN_MOTION_DOT":"0.00002573","INCLINATION":"53.0545","REF_FRAME":"TEME","TIME_SYSTEM":"UTC","TLE_LINE1":"1 45058U 20006Q   23166.15267427  .00002573  00000-0  19157-3 0  9995","PERIAPSIS":"546.361","REV_AT_EPOCH":"18596","ELEMENT_SET_NO":"999","ARG_OF_PERICENTER":"113.1036","MEAN_ANOMALY":"247.0086","MEAN_ELEMENT_THEORY":"SGP4","DECAY_DATE":null,"LAUNCH_DATE":"2020-01-29","FILE":"3933820","EPOCH":"2023-06-15T03:39:51.056928","NORAD_CAT_ID":"45058","RCS_SIZE":"LARGE","MEAN_MOTION_DDOT":"0.0000000000000","COUNTRY_CODE":"US"},{"EPHEMERIS_TYPE":"0","TLE_LINE2":"2 45059  53.0543  86.4443 0001163  78.0375 282.0745 15.06398385186051","MEAN_MOTION":"15.06398385","RA_OF_ASC_NODE":"86.4443","OBJECT_TYPE":"PAYLOAD","BSTAR":"0.00085188000000","SEMIMAJOR_AXIS":"6925.354","CENTER_NAME":"EARTH","APOAPSIS":"548.024","SITE":"AFETR","CLASSIFICATION_TYPE":"U","OBJECT_NAME":"STARLINK-1165","ECCENTRICITY":"0.00011630","OBJECT_ID":"2020-006R","GP_ID":"234016797","PERIOD":"95.592","INCLINATION":"53.0543","MEAN_MOTION_DOT":"0.00012429","REF_FRAME":"TEME","TIME_SYSTEM":"UTC","TLE_LINE1":"1 45059U 20006R   23166.77192118  .00012429  00000-0  85188-3 0  9996","REV_AT_EPOCH":"18605","PERIAPSIS":"546.413","ARG_OF_PERICENTER":"78.0375","ELEMENT_SET_NO":"999","MEAN_ANOMALY":"282.0745","MEAN_ELEMENT_THEORY":"SGP4","LAUNCH_DATE":"2020-01-29","DECAY_DATE":null,"EPOCH":"2023-06-15T18:31:33.989952","FILE":"3934071","NORAD_CAT_ID":"45059","RCS_SIZE":"LARGE","MEAN_MOTION_DDOT":"0.0000000000000","COUNTRY_CODE":"US"},{"COUNTRY_CODE":"US","NORAD_CAT_ID":"45060","MEAN_MOTION_DDOT":"0.0000000000000","RCS_SIZE":"LARGE","LAUNCH_DATE":"2020-01-29","DECAY_DATE":null,"EPOCH":"2023-06-15T04:06:23.970528","FILE":"3933820","MEAN_ELEMENT_THEORY":"SGP4","MEAN_ANOMALY":"266.6400","ELEMENT_SET_NO":"999","ARG_OF_PERICENTER":"93.4732","PERIAPSIS":"546.394","REV_AT_EPOCH":"18596","TIME_SYSTEM":"UTC","TLE_LINE1":"1 45060U 20006S   23166.17111077 -.00000187  00000-0  63279-5 0  9995","REF_FRAME":"TEME","PERIOD":"95.593","MEAN_MOTION_DOT":"-0.00000187","INCLINATION":"53.0540","OBJECT_ID":"2020-006S","GP_ID":"233985077","CLASSIFICATION_TYPE":"U","ECCENTRICITY":"0.00012470","OBJECT_NAME":"STARLINK-1166","APOAPSIS":"548.121","CENTER_NAME":"EARTH","SITE":"AFETR","OBJECT_TYPE":"PAYLOAD","BSTAR":"0.00000632790000","SEMIMAJOR_AXIS":"6925.393","TLE_LINE2":"2 45060  53.0540  89.1400 0001247  93.4732 266.6400 15.06385558185967","EPHEMERIS_TYPE":"0","RA_OF_ASC_NODE":"89.1400","MEAN_MOTION":"15.06385558"}];
